[{"OBJECT_NAME":"STARLINK-3603","OBJECT_ID":"2022-017BA","EPOCH":"2026-03-10T00:00:02.999808","MEAN_MOTION":15.75223157,"ECCENTRICITY":7.732e-5,"INCLINATION":53.2171,"RA_OF_ASC_NODE":308.3028,"ARG_OF_PERICENTER":120.0533,"MEAN_ANOMALY":293.8003,"EPHEMERIS_TYPE":0,"CLASSIFICATION_TYPE":"U","NORAD_CAT_ID":51816,"ELEMENT_SET_NO":999,"REV_AT_EPOCH":592,"BSTAR":0.0029857303,"MEAN_MOTION_DOT":0.00483888,"MEAN_MOTION_DDOT":0},{"OBJECT_NAME":"ANGELS","OBJECT_ID":"2019-092D","EPOCH":"2026-03-09T13:15:26.304192","MEAN_MOTION":15.80250466,"ECCENTRICITY":0.00029449,"INCLINATION":97.4199,"RA_OF_ASC_NODE":283.5362,"ARG_OF_PERICENTER":190.9639,"MEAN_ANOMALY":169.1565,"EPHEMERIS_TYPE":0,"CLASSIFICATION_TYPE":"U","NORAD_CAT_ID":44876,"ELEMENT_SET_NO":999,"REV_AT_EPOCH":34660,"BSTAR":0.00085253194,"MEAN_MOTION_DOT":0.00162032,"MEAN_MOTION_DDOT":0}]
